ONEWEB-0564             
1 55801U 23029F   24305.80745868 -.00000183  00000+0 -48154-3 0  9993
2 55801  87.9300  32.5114 0001652 116.3348 243.7955 13.20769703 82827
ONEWEB-0638             
1 55802U 23029G   24305.82658350  .00000127  00000+0  30678-3 0  9993
2 55802  87.9031  47.7496 0002168 113.2934 246.8424 13.14500269 82154
ONEWEB-0639             
1 55803U 23029H   24305.84134857  .00000291  00000+0  69541-3 0  9990
2 55803  87.9175  62.9698 0002673  82.8006 277.3431 13.19723988 80648
ONEWEB-0640             
1 55804U 23029J   24305.83611134 -.00000037  00000+0 -13383-3 0  9991
2 55804  87.9028  47.7409 0002524 106.7258 253.4149 13.14501842 81467
ONEWEB-0641             
1 55805U 23029K   24305.83656458  .00000931  00000+0  22918-2 0  9994
2 55805  87.9157  62.9499 0001922  94.7047 265.4305 13.19731470 80656
ONEWEB-0642             
1 55806U 23029L   24305.83184793  .00000146  00000+0  33193-3 0  9999
2 55806  87.9177  62.9784 0002281  74.5820 285.5565 13.19724523 80641
ONEWEB-0643             
1 55807U 23029M   24305.80598039  .00000187  00000+0  46952-3 0  9991
2 55807  87.9028  47.7259 0001820  68.7207 291.4117 13.14502193 81436
ONEWEB-0644             
1 55808U 23029N   24305.82711714  .00000129  00000+0  28870-3 0  9996
2 55808  87.9179  62.9782 0001939  82.3217 277.8136 13.19727032 80645
